0 FENGYUN 1C DEB
1 30760U 99025ATW 13282.01816373 -.00000069  00000-0 -15386-4 0  6492
2 30760 099.1078 297.5232 0055644 133.0946 247.2888 14.02643015338663
0 FENGYUN 1C DEB
1 30760U 99025ATW 13283.02362347 -.00000057  00000-0 -82877-5 0  6500
2 30760 099.1077 298.5285 0055652 130.4047 284.2816 14.02642895338806
0 FENGYUN 1C DEB
1 30760U 99025ATW 13285.73403384 -.00000016  00000-0  18363-4 0  6521
2 30760 099.1069 301.2389 0055653 123.1375 290.3071 14.02642361339189
0 FENGYUN 1C DEB
1 30760U 99025ATW 13287.60288765  .00000022  00000-0  42223-4 0  6532
2 30760 099.1062 303.1075 0055612 118.1353 006.9408 14.02642305339442
0 FENGYUN 1C DEB
1 30760U 99025ATW 13288.73006580  .00000096  00000-0  90093-4 0  6540
2 30760 099.1060 304.2345 0055596 115.1096 298.5513 14.02642543339602
0 FENGYUN 1C DEB
1 30760U 99025ATW 13290.01579868  .00000112  00000-0  10036-3 0  6556
2 30760 099.1058 305.5199 0055557 111.6556 310.7754 14.02642709339786
0 FENGYUN 1C DEB
1 30760U 99025ATW 13291.59645332  .00000181  00000-0  14452-3 0  6563
2 30760 099.1059 307.0999 0055499 107.4016 012.1975 14.02642701340008
0 FENGYUN 1C DEB
1 30760U 99025ATW 13292.72620139  .00000246  00000-0  18590-3 0  6577
2 30760 099.1059 308.2292 0055449 104.3529 316.8033 14.02642703340165
0 FENGYUN 1C DEB
1 30760U 99025ATW 13294.00863500  .00000295  00000-0  21708-3 0  6581
2 30760 099.1060 309.5111 0055401 100.8895 312.3892 14.02643088340347
0 FENGYUN 1C DEB
1 30760U 99025ATW 13295.52824051  .00000385  00000-0  27493-3 0  6595
2 30760 099.1061 311.0300 0055339 096.7811 065.5708 14.02643741340559
